{"type": "FeatureCollection", "features": [ {"type": "Feature", "properties": {"norad_id": 66930, "name": "STARLINK-36206", "group": "last-30-days", "lat": -16.51116695922127, "lon": 168.68272581107996, "alt_km": 420.6627355889459, "timestamp": "2025-12-27T18:38:02.205502+00:00", "meta": {"OBJECT_NAME": "STARLINK-36206", "OBJECT_ID": "2025-286F", "EPOCH": "2025-12-27T12:00:02.000160", "MEAN_MOTION": 15.50943018, "ECCENTRICITY": 0.0001164, "INCLINATION": 53.1595, "RA_OF_ASC_NODE": 337.166, "ARG_OF_PERICENTER": 73.1387, "MEAN_ANOMALY": 24.095, "EPHEMERIS_TYPE": 0, "CLASSIFICATION_TYPE": "U", "NORAD_CAT_ID": 66930, "ELEMENT_SET_NO": 999, "REV_AT_EPOCH": 436, "BSTAR": -0.038727, "MEAN_MOTION_DOT": -0.02035437, "MEAN_MOTION_DDOT": 0}, "tle": {"line1": "1 66930U 25286F   25361.50002315 -.02035437  00000+0 -38727-1 0  9993", "line2": "2 66930  53.1595 337.1660 0001164  73.1387  24.0950 15.50943018  4360"}}, "geometry": {"type": "Point", "coordinates": [168.68272581107996, -16.51116695922127]}}, {"type": "Feature", "properties": {"norad_id": 66931, "name": "STARLINK-36130", "group": "last-30-days", "lat": -17.997314372126773, "lon": 169.9358105706313, "alt_km": 421.0436110147157, "timestamp": "2025-12-27T18:38:02.205514+00:00", "meta": {"OBJECT_NAME": "STARLINK-36130", "OBJECT_ID": "2025-286G", "EPOCH": "2025-12-27T12:00:02.000160", "MEAN_MOTION": 15.50927692, "ECCENTRICITY": 0.0001317, "INCLINATION": 53.1595, "RA_OF_ASC_NODE": 337.1627, "ARG_OF_PERICENTER": 60.8922, "MEAN_ANOMALY": 38.2626, "EPHEMERIS_TYPE": 0, "CLASSIFICATION_TYPE": "U", "NORAD_CAT_ID": 66931, "ELEMENT_SET_NO": 999, "REV_AT_EPOCH": 436, "BSTAR": -0.038362, "MEAN_MOTION_DOT": -0.02017417, "MEAN_MOTION_DDOT": 0}, "tle": {"line1": "1 66931U 25286G   25361.50002315 -.02017417  00000+0 -38362-1 0  9997", "line2": "2 66931  53.1595 337.1627 0001317  60.8922  38.2626 15.50927692  4369"}}, "geometry": {"type": "Point", "coordinates": [169.9358105706313, -17.997314372126773]}}, {"type": "Feature", "properties": {"norad_id": 66932, "name": "STARLINK-36177", "group": "last-30-days", "lat": -19.48555880348189, "lon": 171.21743581559954, "alt_km": 420.97626532555387, "timestamp": "2025-12-27T18:38:02.205524+00:00", "meta": {"OBJECT_NAME": "STARLINK-36177", "OBJECT_ID": "2025-286H", "EPOCH": "2025-12-27T12:00:02.000160", "MEAN_MOTION": 15.50948001, "ECCENTRICITY": 0.0001188, "INCLINATION": 53.1596, "RA_OF_ASC_NODE": 337.1577, "ARG_OF_PERICENTER": 75.0291, "MEAN_ANOMALY": 26.0385, "EPHEMERIS_TYPE": 0, "CLASSIFICATION_TYPE": "U", "NORAD_CAT_ID": 66932, "ELEMENT_SET_NO": 999, "REV_AT_EPOCH": 436, "BSTAR": -0.038926, "MEAN_MOTION_DOT": -0.02045115, "MEAN_MOTION_DDOT": 0}, "tle": {"line1": "1 66932U 25286H   25361.50002315 -.02045115  00000+0 -38926-1 0  9990", "line2": "2 66932  53.1596 337.1577 0001188  75.0291  26.0385 15.50948001  4362"}}, "geometry": {"type": "Point", "coordinates": [171.21743581559954, -19.48555880348189]}}, {"type": "Feature", "properties": {"norad_id": 66933, "name": "STARLINK-36157", "group": "last-30-days", "lat": -20.95896637510916, "lon": 172.51927289770575, "alt_km": 421.3017308481212, "timestamp": "2025-12-27T18:38:02.205533+00:00", "meta": {"OBJECT_NAME": "STARLINK-36157", "OBJECT_ID": "2025-286J", "EPOCH": "2025-12-27T12:00:02.000160", "MEAN_MOTION": 15.50954167, "ECCENTRICITY": 0.0001335, "INCLINATION": 53.1595, "RA_OF_ASC_NODE": 337.154, "ARG_OF_PERICENTER": 65.3486, "MEAN_ANOMALY": 37.6336, "EPHEMERIS_TYPE": 0, "CLASSIFICATION_TYPE": "U", "NORAD_CAT_ID": 66933, "ELEMENT_SET_NO": 999, "REV_AT_EPOCH": 436, "BSTAR": -0.039092, "MEAN_MOTION_DOT": -0.02053377, "MEAN_MOTION_DDOT": 0}, "tle": {"line1": "1 66933U 25286J   25361.50002315 -.02053377  00000+0 -39092-1 0  9995", "line2": "2 66933  53.1595 337.1540 0001335  65.3486  37.6336 15.50954167  4368"}}, "geometry": {"type": "Point", "coordinates": [172.51927289770575, -20.95896637510916]}}, {"type": "Feature", "properties": {"norad_id": 66934, "name": "STARLINK-36153", "group": "last-30-days", "lat": -22.41500008990023, "lon": 173.8403501106461, "alt_km": 421.67723288930756, "timestamp": "2025-12-27T18:38:02.205545+00:00", "meta": {"OBJECT_NAME": "STARLINK-36153", "OBJECT_ID": "2025-286K", "EPOCH": "2025-12-27T12:00:02.000160", "MEAN_MOTION": 15.50941423, "ECCENTRICITY": 0.0001493, "INCLINATION": 53.1594, "RA_OF_ASC_NODE": 337.1503, "ARG_OF_PERICENTER": 52.0401, "MEAN_ANOMALY": 52.8605, "EPHEMERIS_TYPE": 0, "CLASSIFICATION_TYPE": "U", "NORAD_CAT_ID": 66934, "ELEMENT_SET_NO": 999, "REV_AT_EPOCH": 436, "BSTAR": -0.038808, "MEAN_MOTION_DOT": -0.02039336, "MEAN_MOTION_DDOT": 0}, "tle": {"line1": "1 66934U 25286K   25361.50002315 -.02039336  00000+0 -38808-1 0  9999", "line2": "2 66934  53.1594 337.1503 0001493  52.0401  52.8605 15.50941423  4361"}}, "geometry": {"type": "Point", "coordinates": [173.8403501106461, -22.41500008990023]}}, {"type": "Feature", "properties": {"norad_id": 66935, "name": "STARLINK-36127", "group": "last-30-days", "lat": -23.870301853021633, "lon": 175.19816071590404, "alt_km": 421.51285883071796, "timestamp": "2025-12-27T18:38:02.205555+00:00", "meta": {"OBJECT_NAME": "STARLINK-36127", "OBJECT_ID": "2025-286L", "EPOCH": "2025-12-27T12:00:02.000160", "MEAN_MOTION": 15.50940811, "ECCENTRICITY": 0.0001325, "INCLINATION": 53.1593, "RA_OF_ASC_NODE": 337.1456, "ARG_OF_PERICENTER": 71.4915, "MEAN_ANOMALY": 35.3263, "EPHEMERIS_TYPE": 0, "CLASSIFICATION_TYPE": "U", "NORAD_CAT_ID": 66935, "ELEMENT_SET_NO": 999, "REV_AT_EPOCH": 436, "BSTAR": -0.038649, "MEAN_MOTION_DOT": -0.02031735, "MEAN_MOTION_DDOT": 0}, "tle": {"line1": "1 66935U 25286L   25361.50002315 -.02031735  00000+0 -38649-1 0  9998", "line2": "2 66935  53.1593 337.1456 0001325  71.4915  35.3263 15.50940811  4363"}}, "geometry": {"type": "Point", "coordinates": [175.19816071590404, -23.870301853021633]}}, {"type": "Feature", "properties": {"norad_id": 66936, "name": "STARLINK-36160", "group": "last-30-days", "lat": -25.309468208176185, "lon": 176.58433589976272, "alt_km": 421.64030488358185, "timestamp": "2025-12-27T18:38:02.205565+00:00", "meta": {"OBJECT_NAME": "STARLINK-36160", "OBJECT_ID": "2025-286M", "EPOCH": "2025-12-27T12:00:02.000160", "MEAN_MOTION": 15.5093758, "ECCENTRICITY": 0.000135, "INCLINATION": 53.1592, "RA_OF_ASC_NODE": 337.1422, "ARG_OF_PERICENTER": 73.5575, "MEAN_ANOMALY": 35.1789, "EPHEMERIS_TYPE": 0, "CLASSIFICATION_TYPE": "U", "NORAD_CAT_ID": 66936, "ELEMENT_SET_NO": 999, "REV_AT_EPOCH": 436, "BSTAR": -0.03858, "MEAN_MOTION_DOT": -0.02028285, "MEAN_MOTION_DDOT": 0}, "tle": {"line1": "1 66936U 25286M   25361.50002315 -.02028285  00000+0 -38580-1 0  9999", "line2": "2 66936  53.1592 337.1422 0001350  73.5575  35.1789 15.50937580  4369"}}, "geometry": {"type": "Point", "coordinates": [176.58433589976272, -25.309468208176185]}}, {"type": "Feature", "properties": {"norad_id": 66937, "name": "STARLINK-36165", "group": "last-30-days", "lat": -26.734351290262424, "lon": 178.00174159601332, "alt_km": 421.72236370388964, "timestamp": "2025-12-27T18:38:02.205576+00:00", "meta": {"OBJECT_NAME": "STARLINK-36165", "OBJECT_ID": "2025-286N", "EPOCH": "2025-12-27T12:00:02.000160", "MEAN_MOTION": 15.50940869, "ECCENTRICITY": 0.0001222, "INCLINATION": 53.1593, "RA_OF_ASC_NODE": 337.1379, "ARG_OF_PERICENTER": 70.506, "MEAN_ANOMALY": 40.1455, "EPHEMERIS_TYPE": 0, "CLASSIFICATION_TYPE": "U", "NORAD_CAT_ID": 66937, "ELEMENT_SET_NO": 999, "REV_AT_EPOCH": 436, "BSTAR": -0.038641, "MEAN_MOTION_DOT": -0.02031308, "MEAN_MOTION_DDOT": 0}, "tle": {"line1": "1 66937U 25286N   25361.50002315 -.02031308  00000+0 -38641-1 0  9998", "line2": "2 66937  53.1593 337.1379 0001222  70.5060  40.1455 15.50940869  4366"}}, "geometry": {"type": "Point", "coordinates": [178.00174159601332, -26.734351290262424]}}, {"type": "Feature", "properties": {"norad_id": 66938, "name": "STARLINK-36155", "group": "last-30-days", "lat": -28.144789647569045, "lon": 179.45472255207062, "alt_km": 421.90270395972584, "timestamp": "2025-12-27T18:38:02.205588+00:00", "meta": {"OBJECT_NAME": "STARLINK-36155", "OBJECT_ID": "2025-286P", "EPOCH": "2025-12-27T12:00:02.000160", "MEAN_MOTION": 15.50939437, "ECCENTRICITY": 0.0001295, "INCLINATION": 53.1594, "RA_OF_ASC_NODE": 337.1332, "ARG_OF_PERICENTER": 68.3414, "MEAN_ANOMALY": 44.2268, "EPHEMERIS_TYPE": 0, "CLASSIFICATION_TYPE": "U", "NORAD_CAT_ID": 66938, "ELEMENT_SET_NO": 999, "REV_AT_EPOCH": 436, "BSTAR": -0.038596, "MEAN_MOTION_DOT": -0.02029115, "MEAN_MOTION_DDOT": 0}, "tle": {"line1": "1 66938U 25286P   25361.50002315 -.02029115  00000+0 -38596-1 0  9991", "line2": "2 66938  53.1594 337.1332 0001295  68.3414  44.2268 15.50939437  4361"}}, "geometry": {"type": "Point", "coordinates": [179.45472255207062, -28.144789647569045]}}, {"type": "Feature", "properties": {"norad_id": 66939, "name": "STARLINK-36154", "group": "last-30-days", "lat": -30.919025238275253, "lon": -177.51619839394013, "alt_km": 422.10287663159306, "timestamp": "2025-12-27T18:38:02.205600+00:00", "meta": {"OBJECT_NAME": "STARLINK-36154", "OBJECT_ID": "2025-286Q", "EPOCH": "2025-12-27T12:00:02.000160", "MEAN_MOTION": 15.50940152, "ECCENTRICITY": 0.0001352, "INCLINATION": 53.1595, "RA_OF_ASC_NODE": 337.1253, "ARG_OF_PERICENTER": 74.694, "MEAN_ANOMALY": 41.7086, "EPHEMERIS_TYPE": 0, "CLASSIFICATION_TYPE": "U", "NORAD_CAT_ID": 66939, "ELEMENT_SET_NO": 999, "REV_AT_EPOCH": 436, "BSTAR": -0.038658, "MEAN_MOTION_DOT": -0.02032106, "MEAN_MOTION_DDOT": 0}, "tle": {"line1": "1 66939U 25286Q   25361.50002315 -.02032106  00000+0 -38658-1 0  9995", "line2": "2 66939  53.1595 337.1253 0001352  74.6940  41.7086 15.50940152  4369"}}, "geometry": {"type": "Point", "coordinates": [-177.51619839394013, -30.919025238275253]}}]}